#aV2012  5 20  0  0  0.00000000     288 DD+AD WGS84 FIT  NGA
## 1689      0.00000000   300.00000000 56067 0.0000000000000
+   31     1  2  3  4  5  6  7  8  9 10 11 12 13 14 15 16 17
+         18 19 20 21 22 23 25 26 27 28 29 30 31 32  0  0  0
+          0  0  0  0  0  0  0  0  0  0  0  0  0  0  0  0  0
+          0  0  0  0  0  0  0  0  0  0  0  0  0  0  0  0  0
+          0  0  0  0  0  0  0  0  0  0  0  0  0  0  0  0  0
++         2  2  2  2  2  2  2  2  2  2  2  2  2  2  2  2  2
++         2  2  2  2  2  2  2  2  2  2  2  2  2  2  2  0  0
++         0  0  0  0  0  0  0  0  0  0  0  0  0  0  0  0  0
++         0  0  0  0  0  0  0  0  0  0  0  0  0  0  0  0  0
++         0  0  0  0  0  0  0  0  0  0  0  0  0  0  0  0  0
%c cc cc ccc ccc cccc cccc cccc cccc ccccc ccccc ccccc ccccc
%c cc cc ccc ccc cccc cccc cccc cccc ccccc ccccc ccccc ccccc
%f  0.0000000  0.000000000  0.00000000000  0.000000000000000
%f  0.0000000  0.000000000  0.00000000000  0.000000000000000
%i    0    0    0    0      0      0      0      0         0
%i    0    0    0    0      0      0      0      0         0
/*      NGA, ST. LOUIS,MO.                                  
/*   EPHEMERIS COMPUTED FROM  1 DAYS OF DATA
/*   EPOCHA SMOOTHER  
/* CCCCCCCCCCCCCCCCCCCCCCCCCCCCCCCCCCCCCCCCCCCCCCCCCCCCCCCCC
*  2012  5 20 12 25  0.00000000                                                 
P  1 -13911.482684  20918.726646   8564.115019    257.435685                    
V  1   1197.471773 -11149.593822  29186.734911      0.019051                    
P  2  15755.093336   1814.632923 -21128.637002    390.864189                    
V  2  -8220.973490  26014.960995  -4377.078586      0.013229                    
P  3 -21854.170226  -6383.845991  13431.861053     51.360519                    
V  3 -11241.984302 -14091.375604 -23875.688396      0.050633                    
P  4  10601.727497  14000.342019 -20087.370502    189.143856                    
V  4  -9905.284615  23146.267914  11357.535373      0.116433                    
P  5  26154.314643  -1093.387742  -4896.558835   -317.141662                    
V  5  -5571.079300   3961.468714 -30651.389873     -0.038475                    
P  6 -21662.146875 -10857.456449  11346.271535     24.871994                    
V  6  -7705.965579 -12192.511379 -26371.428473     -0.026263                    
P  7  -6344.736116  25243.735581   4557.670850     82.914637                    
V  7  -4414.016803   4517.649753 -31548.436381      0.034814                    
P  8   2161.622439  20333.198563  16680.584284      1.257414                    
V  8 -10465.927963  18507.814741 -21843.470610     -0.000221                    
P  9  14755.422110 -18363.440530  11744.900169    159.435983                    
V  9  -3468.088838  15471.839650  27226.660656      0.025461                    
P 10  15938.748344  11060.713974 -18560.531110    -38.764963                    
V 10 -22470.058477   4921.953314 -16194.634534     -0.011169                    
P 11 -13489.322311  16799.371291  14953.739494   -263.170489                    
V 11  -2233.950230 -20269.469449  20563.658160     -0.037839                    
P 12  21522.226397 -10738.332510 -11050.605466     69.993203                    
V 12  14210.827648    -66.795926  27948.384652      0.021077                    
P 13   1647.664508  21115.392323 -16109.650137    206.247754                    
V 13 -12649.269806 -15779.211302 -22270.436749     -0.023656                    
P 14 -15022.384523 -21971.274021   1300.506682    203.211745                    
V 14   2555.050621   -104.977123  31992.572443      0.009331                    
P 15  13748.982989  -7729.901577  21377.139416    -91.390507                    
V 15  17711.635160  20649.352524  -3714.762851     -0.000933                    
P 16 -26217.137971    -55.404246  -5218.015471   -235.494428                    
V 16   6258.775921  -2697.702133 -31080.821170     -0.012776                    
P 17  14446.589971  22227.056994   3266.795518    127.413764                    
V 17  -4385.894521  -1528.063708  31285.574873     -0.028721                    
P 18   1338.586021 -16287.686015  21258.899122    196.594190                    
V 18  26090.449233  -3622.096635  -4864.600652      0.018302                    
P 19 -15376.889680   4012.526915  21290.438831   -267.102927                    
V 19 -15161.923937 -22442.542424  -6317.886560     -0.037280                    
P 20 -17193.770901  14601.098956 -14130.387550     63.455639                    
V 20 -17972.713694   1099.856101  23332.611706      0.001499                    
P 21   1947.545919 -24736.542169   9105.785094   -224.885476                    
V 21   7393.254560  -9120.193660 -28449.742149     -0.024570                    
P 22 -14609.069275 -11965.559246  18906.319765    143.924285                    
V 22  23126.470995  -5477.836085  14415.722742      0.003280                    
P 23  -7833.432926  13841.948840 -21179.788943    203.515180                    
V 23 -17722.478634 -20440.062628  -7161.634034     -0.037025                    
P 25   8351.237751 -15469.548312 -19924.427945     34.234297                    
V 25  24995.215527  -3533.606192  13303.287352      0.004808                    
P 26  18931.838142   7903.226030  16450.732103   -396.199149                    
V 26  11468.243641  18694.464459 -21025.206557      0.094035                    
P 27  16219.326399 -12148.770956  17513.858796    389.905757                    
V 27  -5135.774371  20615.245382  20230.665427      0.039805                    
P 28  11495.270858  12709.537882  20903.880584    146.008225                    
V 28 -24918.720638   3718.873886  11543.732759      0.041103                    
P 29    636.821582 -19599.892065 -17866.307401    314.964312                    
V 29  15105.472496  17148.871459 -18159.596492      0.038215                    
P 30 -21567.226850  -4887.670447 -15073.016574   -190.396778                    
V 30  17289.659474  -6898.664237 -23049.049270     -0.207323                    
P 31 -10119.071239 -12573.005675 -20852.834327    244.133907                    
V 31  10449.532984 -24819.748435  10040.438138      0.040965                    
P 32 -23791.552123   7745.005443  -7949.581404   -445.712047                    
V 32 -10770.367703  -2383.080122  29615.072242     -0.039901                    
EOF
